[{"OBJECT_NAME":"ONEWEB-0344","OBJECT_ID":"2021-083AA","EPOCH":"2026-03-09T16:59:38.736672","MEAN_MOTION":13.13470934,"ECCENTRICITY":0.00020532,"INCLINATION":87.9024,"RA_OF_ASC_NODE":340.0413,"ARG_OF_PERICENTER":72.2517,"MEAN_ANOMALY":287.8836,"EPHEMERIS_TYPE":0,"CLASSIFICATION_TYPE":"U","NORAD_CAT_ID":49210,"ELEMENT_SET_NO":999,"REV_AT_EPOCH":21783,"BSTAR":-0.0005678056,"MEAN_MOTION_DOT":-1.95e-6,"MEAN_MOTION_DDOT":0},{"OBJECT_NAME":"FREGAT DEB","OBJECT_ID":"2011-037AB","EPOCH":"2026-03-09T00:44:47.826240","MEAN_MOTION":13.5498978,"ECCENTRICITY":0.08327263,"INCLINATION":51.2024,"RA_OF_ASC_NODE":351.4028,"ARG_OF_PERICENTER":105.3557,"MEAN_ANOMALY":264.0839,"EPHEMERIS_TYPE":0,"CLASSIFICATION_TYPE":"U","NORAD_CAT_ID":45635,"ELEMENT_SET_NO":999,"REV_AT_EPOCH":24756,"BSTAR":0.012231007,"MEAN_MOTION_DOT":0.00094296,"MEAN_MOTION_DDOT":0}]
